      2.10          N: GNSS NAV DATA                        RINEX VERSION / TYPE
fic2rin                                 05/13/2019 00:19:19 PGM / RUN BY / DATE
                                                            END OF HEADER
19 19  5 12  6  0  0.0-3.200196661055e-04 4.547473508865e-12 0.000000000000e+00
    7.700000000000e+01 5.071875000000e+01 3.901591088358e-09-1.777981077191e+00
    2.976506948471e-06 9.579036966898e-03 5.491077899933e-06 5.153638223648e+03
    2.160000000000e+04 1.154839992523e-07 2.603315877184e+00 1.136213541031e-07
    9.820817337948e-01 2.783437500000e+02 1.395298601433e+00-7.862470360593e-09
    3.314423773340e-10 1.000000000000e+00 2.053000000000e+03 0.000000000000e+00
    3.400000000000e+00 0.000000000000e+00-1.536682248116e-08 7.700000000000e+01
    1.440000000000e+04 4.000000000000e+00
10 19  5 12  6  0  0.0 4.875240847468e-05-1.068656274583e-11 0.000000000000e+00
    6.100000000000e+01-8.000000000000e+01 4.456614207299e-09-2.485604758912e+00
   -4.231929779053e-06 4.523913841695e-03 1.054070889950e-05 5.153669597626e+03
    2.160000000000e+04 1.490116119385e-08-1.688015635415e+00-1.098960638046e-07
    9.625137956945e-01 1.774062500000e+02-2.692958248132e+00-7.950688320939e-09
    5.285934466102e-11 1.000000000000e+00 2.053000000000e+03 0.000000000000e+00
    2.400000000000e+00 0.000000000000e+00 1.862645149231e-09 6.100000000000e+01
    1.440000000000e+04 4.000000000000e+00
12 19  5 12  6  0  0.0 2.432423643768e-04-3.410605131648e-12 0.000000000000e+00
    6.300000000000e+01 3.793750000000e+01 3.800515449581e-09-1.779008148087e+00
    1.963227987289e-06 7.663683500141e-03 8.786097168922e-06 5.153651666641e+03
    2.160000000000e+04 2.104789018631e-07 1.523366631112e+00-2.980232238770e-08
    9.827636086890e-01 2.225000000000e+02 1.080368616409e+00-7.641032565391e-09
   -2.753686130652e-10 1.000000000000e+00 2.053000000000e+03 0.000000000000e+00
    2.400000000000e+00 0.000000000000e+00-1.210719347000e-08 6.300000000000e+01
    1.440000000000e+04 4.000000000000e+00
32 19  5 12  6  0  0.0-9.154621511698e-05 1.693933882052e-11 0.000000000000e+00
    9.700000000000e+01 2.253125000000e+01 4.763769858707e-09 2.404345609297e+00
    1.125037670135e-06 3.020332311280e-03 9.618699550629e-06 5.153584091187e+03
    2.160000000000e+04-3.539025783539e-08-6.456798154760e-01-5.587935447693e-09
    9.568480792832e-01 1.925312500000e+02-2.508632098893e+00-8.006047769739e-09
    2.442958901901e-10 1.000000000000e+00 2.053000000000e+03 0.000000000000e+00
    2.400000000000e+00 0.000000000000e+00 4.656612873077e-10 9.700000000000e+01
    1.440000000000e+04 4.000000000000e+00
31 19  5 12  6  0  0.0 3.878120332956e-05-2.728484105319e-12 0.000000000000e+00
    5.700000000000e+01 2.240625000000e+01 4.778413325809e-09-1.382879671883e+00
    1.111999154091e-06 9.195183054544e-03 6.495043635368e-06 5.153602674484e+03
    2.160000000000e+04-7.450580596924e-09 4.373863106898e-01-1.192092895508e-07
    9.604422583438e-01 2.554062500000e+02 3.010762941790e-03-8.155696860368e-09
   -2.032227507576e-10 1.000000000000e+00 2.053000000000e+03 0.000000000000e+00
    2.400000000000e+00 0.000000000000e+00-1.350417733192e-08 5.700000000000e+01
    1.440000000000e+04 4.000000000000e+00
29 19  5 12  6  0  0.0 2.037314698100e-04-9.208633855451e-12 0.000000000000e+00
    5.500000000000e+01 4.850000000000e+01 3.860517948925e-09 2.372136912064e+00
    2.561137080193e-06 1.031164312735e-03 5.859881639481e-06 5.153759363174e+03
    2.160000000000e+04 5.774199962616e-08 2.568155611064e+00 9.313225746155e-08
    9.856979912150e-01 2.803437500000e+02 1.658130038926e+00-7.884614140113e-09
    2.885834492304e-10 1.000000000000e+00 2.053000000000e+03 0.000000000000e+00
    2.400000000000e+00 0.000000000000e+00-9.778887033463e-09 5.500000000000e+01
    1.440000000000e+04 4.000000000000e+00
20 19  5 12  6  0  0.0 5.246540531516e-04 2.273736754432e-13 0.000000000000e+00
    9.400000000000e+01-8.756250000000e+01 5.242361222530e-09-7.723973830513e-01
   -4.632398486137e-06 4.376520635560e-03 9.503215551376e-06 5.153692108154e+03
    2.160000000000e+04-5.587935447693e-09-1.806044119135e+00-3.166496753693e-08
    9.302715449724e-01 1.798125000000e+02 2.353205350643e+00-8.473210086068e-09
    5.500229106620e-11 1.000000000000e+00 2.053000000000e+03 0.000000000000e+00
    2.400000000000e+00 0.000000000000e+00-8.847564458847e-09 9.400000000000e+01
    1.440000000000e+04 4.000000000000e+00
 4 19  5 12  6  0  0.0 1.593669876456e-04 3.637978807092e-12 0.000000000000e+00
    1.150000000000e+02 2.240625000000e+01 4.651265172436e-09-1.214622643463e+00
    1.091510057449e-06 4.162309924141e-04 9.221956133842e-06 5.153758749008e+03
    2.160000000000e+04-5.029141902924e-08-6.072343854067e-01-3.166496753693e-08
    9.599758142288e-01 1.987187500000e+02-1.541288109042e+00-7.976760835535e-09
    1.882221259213e-10 1.000000000000e+00 2.053000000000e+03 0.000000000000e+00
    2.400000000000e+01 6.300000000000e+01-8.847564458847e-09 6.270000000000e+02
    1.446000000000e+04 4.000000000000e+00
16 19  5 12  5 59 44.0-3.942055627704e-05-2.955857780762e-12 0.000000000000e+00
    2.000000000000e+01 3.900000000000e+01 3.755156417338e-09 2.636460388483e+00
    1.884996891022e-06 1.081569818780e-02 1.014396548271e-05 5.153575298309e+03
    2.158400000000e+04-5.587935447693e-08 1.542283165439e+00-1.620501279831e-07
    9.831113750377e-01 1.954062500000e+02 5.765405325302e-01-7.613174262124e-09
   -3.067984936744e-10 1.000000000000e+00 2.053000000000e+03 0.000000000000e+00
    2.400000000000e+00 0.000000000000e+00-1.071020960808e-08 2.000000000000e+01
    1.854000000000e+04 4.000000000000e+00
21 19  5 12  5 59 44.0-1.945006661117e-04 7.503331289627e-12 0.000000000000e+00
    2.200000000000e+01-4.875000000000e+01 4.803771524937e-09-2.239548604497e+00
   -2.095475792885e-06 2.463612938300e-02 3.041699528694e-06 5.153744749069e+03
    2.158400000000e+04 2.123415470123e-07-2.790964857586e+00 2.402812242508e-07
    9.484751364137e-01 3.045000000000e+02-1.444070177742e+00-8.122838348822e-09
    2.339383158984e-10 1.000000000000e+00 2.053000000000e+03 0.000000000000e+00
    2.400000000000e+00 0.000000000000e+00-1.024454832077e-08 2.200000000000e+01
    1.881000000000e+04 4.000000000000e+00
 6 19  5 12  5 59 44.0 2.077831886709e-04-1.000444171950e-11 0.000000000000e+00
    6.000000000000e+00-4.896875000000e+01 4.392682972878e-09-2.267526094992e-01
   -2.799555659294e-06 1.580119132996e-03 3.974884748459e-06 5.153579828262e+03
    2.158400000000e+04 2.235174179077e-08-2.735407939532e+00-1.676380634308e-08
    9.752600165914e-01 3.069375000000e+02-1.082432464663e+00-8.213199255573e-09
    1.407201472733e-10 1.000000000000e+00 2.053000000000e+03 0.000000000000e+00
    2.400000000000e+00 0.000000000000e+00 4.190951585770e-09 6.000000000000e+00
    2.040000000000e+04 4.000000000000e+00
 6 19  5 12  7 59 44.0 2.077110111713e-04-1.000444171950e-11 0.000000000000e+00
    7.000000000000e+00-4.046875000000e+01 4.343395205559e-09 8.235264518451e-01
   -1.998618245125e-06 1.578883850016e-03 3.723427653313e-06 5.153577552795e+03
    2.878400000000e+04 2.607703208923e-08-2.735467057514e+00-1.862645149231e-09
    9.752609806544e-01 3.114062500000e+02-1.082473287392e+00-8.223199672131e-09
    1.350056235261e-10 1.000000000000e+00 2.053000000000e+03 0.000000000000e+00
    2.400000000000e+00 0.000000000000e+00 4.190951585770e-09 7.000000000000e+00
    2.160000000000e+04 4.000000000000e+00
16 19  5 12  7 59 44.0-3.944151103497e-05-2.955857780762e-12 0.000000000000e+00
    2.100000000000e+01 4.137500000000e+01 3.742655896641e-09-2.596542731787e+00
    2.050772309303e-06 1.081488048658e-02 9.624287486076e-06 5.153576780319e+03
    2.878400000000e+04 3.539025783539e-08 1.542228342584e+00-1.620501279831e-07
    9.831092172336e-01 2.057500000000e+02 5.765926489868e-01-7.613888577592e-09
   -2.817974522807e-10 1.000000000000e+00 2.053000000000e+03 0.000000000000e+00
    2.400000000000e+00 0.000000000000e+00-1.071020960808e-08 2.100000000000e+01
    2.160000000000e+04 4.000000000000e+00
21 19  5 12  7 59 44.0-1.944466494024e-04 7.503331289627e-12 0.000000000000e+00
    2.300000000000e+01-3.925000000000e+01 5.038424156304e-09-1.189496214995e+00
   -1.564621925354e-06 2.463700564113e-02 4.692003130913e-06 5.153740392685e+03
    2.878400000000e+04-4.097819328308e-07-2.791025356563e+00 3.352761268616e-07
    9.484738139357e-01 2.887812500000e+02-1.443980382367e+00-8.762150693033e-09
    2.167947446570e-10 1.000000000000e+00 2.053000000000e+03 0.000000000000e+00
    2.400000000000e+00 0.000000000000e+00-1.024454832077e-08 2.300000000000e+01
    2.160000000000e+04 4.000000000000e+00
 2 19  5 12  8  0  0.0-2.111392095685e-04-9.208633855451e-12 0.000000000000e+00
    5.500000000000e+01-3.059375000000e+01 4.944491672211e-09 9.290732570704e-01
   -1.780688762665e-06 1.889070926700e-02 3.850087523460e-06 5.153703304291e+03
    2.880000000000e+04-2.644956111908e-07-2.795594244293e+00-5.960464477539e-08
    9.547335731027e-01 3.027812500000e+02-1.742093361890e+00-8.752864591943e-09
    6.500270762369e-11 1.000000000000e+00 2.053000000000e+03 0.000000000000e+00
    2.400000000000e+00 0.000000000000e+00-2.048909664154e-08 5.500000000000e+01
    2.160000000000e+04 4.000000000000e+00
 1 19  5 12  8  0  0.0-1.441268250346e-05-8.867573342286e-12 0.000000000000e+00
    6.100000000000e+01-4.462500000000e+01 4.438756320589e-09 6.485477156899e-01
   -2.393499016762e-06 8.797570597380e-03 3.885477781296e-06 5.153652791977e+03
    2.880000000000e+04-9.126961231232e-08-2.727187554148e+00 1.434236764908e-07
    9.756058665175e-01 3.138437500000e+02 6.977341814179e-01-8.357490980188e-09
    1.428630936784e-11 1.000000000000e+00 2.053000000000e+03 0.000000000000e+00
    2.400000000000e+00 0.000000000000e+00 5.587935447693e-09 6.100000000000e+01
    2.160000000000e+04 4.000000000000e+00
